[{"OBJECT_NAME":"AFR-1","OBJECT_ID":"2023-084AJ","EPOCH":"2026-03-09T23:02:07.499328","MEAN_MOTION":15.27543824,"ECCENTRICITY":0.00099838,"INCLINATION":97.6099,"RA_OF_ASC_NODE":203.4313,"ARG_OF_PERICENTER":334.9676,"MEAN_ANOMALY":25.1077,"EPHEMERIS_TYPE":0,"CLASSIFICATION_TYPE":"U","NORAD_CAT_ID":56964,"ELEMENT_SET_NO":999,"REV_AT_EPOCH":15207,"BSTAR":0.00024843733,"MEAN_MOTION_DOT":6.624e-5,"MEAN_MOTION_DDOT":0},{"OBJECT_NAME":"STARLINK-36531","OBJECT_ID":"2026-012W","EPOCH":"2026-03-09T01:19:15.182976","MEAN_MOTION":15.27596986,"ECCENTRICITY":0.00014047,"INCLINATION":43.0005,"RA_OF_ASC_NODE":318.0742,"ARG_OF_PERICENTER":278.5681,"MEAN_ANOMALY":81.5012,"EPHEMERIS_TYPE":0,"CLASSIFICATION_TYPE":"U","NORAD_CAT_ID":67513,"ELEMENT_SET_NO":999,"REV_AT_EPOCH":766,"BSTAR":0.0010327864,"MEAN_MOTION_DOT":0.00028282,"MEAN_MOTION_DDOT":0}]
